ONEWEB-0427             
1 50499U 21132AG  25282.35238786  .00000009  00000+0 -86770-5 0  9999
2 50499  87.9228  25.2422 0001926  95.5120 264.6231 13.18683988188558
ONEWEB-0429             
1 50500U 21132AH  25282.33919838 -.00000008  00000+0 -51977-4 0  9994
2 50500  87.9229  25.2754 0001792 104.6628 255.4703 13.18686561188525
ONEWEB-0430             
1 50501U 21132AJ  25282.70703775  .00000065  00000+0  13255-3 0  9994
2 50501  87.9229  25.1970 0001999 105.2743 254.8610 13.18686561188619
ONEWEB-0432             
1 50502U 21132AK  25282.28315514  .00000039  00000+0  66521-4 0  9994
2 50502  87.9220  25.2570 0002616  90.1463 269.9969 13.18692844188510
ONEWEB-0440             
1 50503U 21132AL  25282.34743001  .00000116  00000+0  26174-3 0  9993
2 50503  87.9230  25.2582 0001400 105.0895 255.0392 13.18688387188513
ONEWEB-0450             
1 50504U 21132AM  25282.34097488  .00000075  00000+0  15633-3 0  9997
2 50504  87.9227  25.2839 0001853 109.9580 250.1752 13.18684001188549
ONEWEB-0410             
1 51622U 22012A   25282.40012319 -.00000030  00000+0 -11098-3 0  9998
2 51622  87.9097  55.7120 0002344  59.6176 300.5187 13.17649355180675
ONEWEB-0411             
1 51623U 22012B   25282.48403381 -.00000643  00000+0 -18797-2 0  9992
2 51623  87.8745  86.2509 0002036 104.0497 256.0857 13.10371312176452
